{
  "norad_id": 57469,
  "name": "STARLINK-30171",
  "history": [
    {
      "epoch": "2026-03-28T20:00:01.999872",
      "apogee_km": 486.2448634038092,
      "perigee_km": 484.9027333942895,
      "latitude_deg": -38.7668453191507,
      "longitude_deg": 6.902222079923376,
      "semi_major_axis_km": 6863.710798399049,
      "eccentricity": 9.777e-05,
      "inclination_deg": 43.0001,
      "raan_deg": 231.3137,
      "arg_perigee_deg": 292.9634,
      "mean_anomaly_deg": 147.5721,
      "mean_motion_rev_day": 15.26737235
    },
    {
      "epoch": "2026-03-29T01:55:48.035712",
      "apogee_km": 486.314836362013,
      "perigee_km": 484.62501633674583,
      "latitude_deg": 13.198089191401715,
      "longitude_deg": 30.620039679808542,
      "semi_major_axis_km": 6863.606926349379,
      "eccentricity": 0.0001231,
      "inclination_deg": 43.0001,
      "raan_deg": 229.9167,
      "arg_perigee_deg": 297.7618,
      "mean_anomaly_deg": 62.3108,
      "mean_motion_rev_day": 15.26771893
    }
  ]
}